GLOBAL-2                
1 43812U 18099BG  26068.69955396  .00003970  00000+0  26145-3 0  9998
2 43812  97.3697 109.3280 0007454 127.1924 232.9986 15.08046936396919
STARLINK-3590           
1 51867U 22022R   26068.03297059  .00002000  00000+0  14374-3 0  9995
2 51867  53.2184  12.0702 0001548  83.0577 277.0592 15.08832415223019
